{
  "type": "FeatureCollection",
  "features": [
    {
      "type": "Feature",
      "properties": {
        "norad_id": 28187,
        "name": "EUTELSAT 7A",
        "group": "eutelsat",
        "lat": NaN,
        "lon": NaN,
        "alt_km": NaN,
        "timestamp": "2025-12-01T03:08:33.661670+00:00",
        "meta": {
          "OBJECT_NAME": "EUTELSAT 7A",
          "OBJECT_ID": "2004-008A",
          "EPOCH": "2025-11-30T11:28:04.252800",
          "MEAN_MOTION": 1.00273084,
          "ECCENTRICITY": 0.0001286,
          "INCLINATION": 5.3242,
          "RA_OF_ASC_NODE": 74.3862,
          "ARG_OF_PERICENTER": 201.7468,
          "MEAN_ANOMALY": 186.2938,
          "EPHEMERIS_TYPE": 0,
          "CLASSIFICATION_TYPE": "U",
          "NORAD_CAT_ID": 28187,
          "ELEMENT_SET_NO": 999,
          "REV_AT_EPOCH": 7936,
          "BSTAR": 0,
          "MEAN_MOTION_DOT": 1.24e-06,
          "MEAN_MOTION_DDOT": 0
        }
      },
      "geometry": {
        "type": "Point",
        "coordinates": [
          NaN,
          NaN
        ]
      }
    },
    {
      "type": "Feature",
      "properties": {
        "norad_id": 28924,
        "name": "EUTELSAT 174A",
        "group": "eutelsat",
        "lat": NaN,
        "lon": NaN,
        "alt_km": NaN,
        "timestamp": "2025-12-01T03:08:33.662125+00:00",
        "meta": {
          "OBJECT_NAME": "EUTELSAT 174A",
          "OBJECT_ID": "2005-052A",
          "EPOCH": "2025-11-30T16:22:59.460096",
          "MEAN_MOTION": 1.00270425,
          "ECCENTRICITY": 0.0006449,
          "INCLINATION": 3.7147,
          "RA_OF_ASC_NODE": 78.9907,
          "ARG_OF_PERICENTER": 169.697,
          "MEAN_ANOMALY": 240.8612,
          "EPHEMERIS_TYPE": 0,
          "CLASSIFICATION_TYPE": "U",
          "NORAD_CAT_ID": 28924,
          "ELEMENT_SET_NO": 999,
          "REV_AT_EPOCH": 5034,
          "BSTAR": 0,
          "MEAN_MOTION_DOT": 3.1e-07,
          "MEAN_MOTION_DDOT": 0
        }
      },
      "geometry": {
        "type": "Point",
        "coordinates": [
          NaN,
          NaN
        ]
      }
    },
    {
      "type": "Feature",
      "properties": {
        "norad_id": 29270,
        "name": "EUTELSAT HOTBIRD 13B",
        "group": "eutelsat",
        "lat": NaN,
        "lon": NaN,
        "alt_km": NaN,
        "timestamp": "2025-12-01T03:08:33.662526+00:00",
        "meta": {
          "OBJECT_NAME": "EUTELSAT HOTBIRD 13B",
          "OBJECT_ID": "2006-032A",
          "EPOCH": "2025-11-30T19:08:17.582208",
          "MEAN_MOTION": 1.00270339,
          "ECCENTRICITY": 0.0003627,
          "INCLINATION": 1.1469,
          "RA_OF_ASC_NODE": 84.4665,
          "ARG_OF_PERICENTER": 159.7723,
          "MEAN_ANOMALY": 145.8505,
          "EPHEMERIS_TYPE": 0,
          "CLASSIFICATION_TYPE": "U",
          "NORAD_CAT_ID": 29270,
          "ELEMENT_SET_NO": 999,
          "REV_AT_EPOCH": 4531,
          "BSTAR": 0,
          "MEAN_MOTION_DOT": 1.78e-06,
          "MEAN_MOTION_DDOT": 0
        }
      },
      "geometry": {
        "type": "Point",
        "coordinates": [
          NaN,
          NaN
        ]
      }
    },
    {
      "type": "Feature",
      "properties": {
        "norad_id": 33459,
        "name": "EUTELSAT HOTBIRD 13C",
        "group": "eutelsat",
        "lat": NaN,
        "lon": NaN,
        "alt_km": NaN,
        "timestamp": "2025-12-01T03:08:33.662973+00:00",
        "meta": {
          "OBJECT_NAME": "EUTELSAT HOTBIRD 13C",
          "OBJECT_ID": "2008-065A",
          "EPOCH": "2025-11-30T18:47:57.031008",
          "MEAN_MOTION": 1.00049966,
          "ECCENTRICITY": 0.0001067,
          "INCLINATION": 2.4379,
          "RA_OF_ASC_NODE": 81.5483,
          "ARG_OF_PERICENTER": 178.1031,
          "MEAN_ANOMALY": 54.3732,
          "EPHEMERIS_TYPE": 0,
          "CLASSIFICATION_TYPE": "U",
          "NORAD_CAT_ID": 33459,
          "ELEMENT_SET_NO": 999,
          "REV_AT_EPOCH": 4535,
          "BSTAR": 0,
          "MEAN_MOTION_DOT": -2.44e-06,
          "MEAN_MOTION_DDOT": 0
        }
      },
      "geometry": {
        "type": "Point",
        "coordinates": [
          NaN,
          NaN
        ]
      }
    },
    {
      "type": "Feature",
      "properties": {
        "norad_id": 36101,
        "name": "EUTELSAT 36B",
        "group": "eutelsat",
        "lat": NaN,
        "lon": NaN,
        "alt_km": NaN,
        "timestamp": "2025-12-01T03:08:33.663437+00:00",
        "meta": {
          "OBJECT_NAME": "EUTELSAT 36B",
          "OBJECT_ID": "2009-065A",
          "EPOCH": "2025-11-30T19:13:09.615072",
          "MEAN_MOTION": 1.00272829,
          "ECCENTRICITY": 0.0006239,
          "INCLINATION": 0.0426,
          "RA_OF_ASC_NODE": 328.9538,
          "ARG_OF_PERICENTER": 281.6984,
          "MEAN_ANOMALY": 158.0704,
          "EPHEMERIS_TYPE": 0,
          "CLASSIFICATION_TYPE": "U",
          "NORAD_CAT_ID": 36101,
          "ELEMENT_SET_NO": 999,
          "REV_AT_EPOCH": 5871,
          "BSTAR": 0,
          "MEAN_MOTION_DOT": 1.34e-06,
          "MEAN_MOTION_DDOT": 0
        }
      },
      "geometry": {
        "type": "Point",
        "coordinates": [
          NaN,
          NaN
        ]
      }
    },
    {
      "type": "Feature",
      "properties": {
        "norad_id": 37258,
        "name": "EUTELSAT KA-SAT 9A",
        "group": "eutelsat",
        "lat": NaN,
        "lon": NaN,
        "alt_km": NaN,
        "timestamp": "2025-12-01T03:08:33.663832+00:00",
        "meta": {
          "OBJECT_NAME": "EUTELSAT KA-SAT 9A",
          "OBJECT_ID": "2010-069A",
          "EPOCH": "2025-11-30T17:18:39.131136",
          "MEAN_MOTION": 1.00269916,
          "ECCENTRICITY": 0.0001043,
          "INCLINATION": 0.0537,
          "RA_OF_ASC_NODE": 328.1756,
          "ARG_OF_PERICENTER": 229.1209,
          "MEAN_ANOMALY": 141.2281,
          "EPHEMERIS_TYPE": 0,
          "CLASSIFICATION_TYPE": "U",
          "NORAD_CAT_ID": 37258,
          "ELEMENT_SET_NO": 999,
          "REV_AT_EPOCH": 4201,
          "BSTAR": 0,
          "MEAN_MOTION_DOT": 8.3e-07,
          "MEAN_MOTION_DDOT": 0
        }
      },
      "geometry": {
        "type": "Point",
        "coordinates": [
          NaN,
          NaN
        ]
      }
    },
    {
      "type": "Feature",
      "properties": {
        "norad_id": 37816,
        "name": "EUTELSAT 7 WEST A",
        "group": "eutelsat",
        "lat": NaN,
        "lon": NaN,
        "alt_km": NaN,
        "timestamp": "2025-12-01T03:08:33.664276+00:00",
        "meta": {
          "OBJECT_NAME": "EUTELSAT 7 WEST A",
          "OBJECT_ID": "2011-051A",
          "EPOCH": "2025-11-30T18:56:41.193024",
          "MEAN_MOTION": 1.00271445,
          "ECCENTRICITY": 0.0006009,
          "INCLINATION": 0.063,
          "RA_OF_ASC_NODE": 358.9962,
          "ARG_OF_PERICENTER": 224.5303,
          "MEAN_ANOMALY": 123.2621,
          "EPHEMERIS_TYPE": 0,
          "CLASSIFICATION_TYPE": "U",
          "NORAD_CAT_ID": 37816,
          "ELEMENT_SET_NO": 999,
          "REV_AT_EPOCH": 5188,
          "BSTAR": 0,
          "MEAN_MOTION_DOT": -3.8e-07,
          "MEAN_MOTION_DDOT": 0
        }
      },
      "geometry": {
        "type": "Point",
        "coordinates": [
          NaN,
          NaN
        ]
      }
    },
    {
      "type": "Feature",
      "properties": {
        "norad_id": 37836,
        "name": "EUTELSAT 16A",
        "group": "eutelsat",
        "lat": NaN,
        "lon": NaN,
        "alt_km": NaN,
        "timestamp": "2025-12-01T03:08:33.664713+00:00",
        "meta": {
          "OBJECT_NAME": "EUTELSAT 16A",
          "OBJECT_ID": "2011-057A",
          "EPOCH": "2025-11-30T19:03:25.546752",
          "MEAN_MOTION": 1.0027277,
          "ECCENTRICITY": 0.0006041,
          "INCLINATION": 0.0653,
          "RA_OF_ASC_NODE": 17.3811,
          "ARG_OF_PERICENTER": 239.6858,
          "MEAN_ANOMALY": 114.7054,
          "EPHEMERIS_TYPE": 0,
          "CLASSIFICATION_TYPE": "U",
          "NORAD_CAT_ID": 37836,
          "ELEMENT_SET_NO": 999,
          "REV_AT_EPOCH": 533,
          "BSTAR": 0,
          "MEAN_MOTION_DOT": 1.26e-06,
          "MEAN_MOTION_DDOT": 0
        }
      },
      "geometry": {
        "type": "Point",
        "coordinates": [
          NaN,
          NaN
        ]
      }
    }
  ]
}