EUTELSAT 7A             
1 28187U 04008A   25334.47782700  .00000124  00000+0  00000+0 0  9995
2 28187   5.3242  74.3862 0001286 201.7468 186.2938  1.00273084 79366
EUTELSAT 174A           
1 28924U 05052A   25334.68263264  .00000031  00000+0  00000+0 0  9993
2 28924   3.7147  78.9907 0006449 169.6970 240.8612  1.00270425 50346
EUTELSAT HOTBIRD 13B    
1 29270U 06032A   25334.79742572  .00000178  00000+0  00000+0 0  9995
2 29270   1.1469  84.4665 0003627 159.7723 145.8505  1.00270339 45314
EUTELSAT HOTBIRD 13C    
1 33459U 08065A   25334.78329897 -.00000244  00000+0  00000+0 0  9992
2 33459   2.4379  81.5483 0001067 178.1031  54.3732  1.00049966 45351
EUTELSAT 36B            
1 36101U 09065A   25334.80080573  .00000134  00000+0  00000+0 0  9995
2 36101   0.0426 328.9538 0006239 281.6984 158.0704  1.00272829 58718
EUTELSAT KA-SAT 9A      
1 37258U 10069A   25334.72128624  .00000083  00000+0  00000+0 0  9999
2 37258   0.0537 328.1756 0001043 229.1209 141.2281  1.00269916 42017
EUTELSAT 7 WEST A       
1 37816U 11051A   25334.78936566 -.00000038  00000+0  00000+0 0  9990
2 37816   0.0630 358.9962 0006009 224.5303 123.2621  1.00271445 51885
EUTELSAT 16A            
1 37836U 11057A   25334.79404568  .00000126  00000+0  00000+0 0  9998
2 37836   0.0653  17.3811 0006041 239.6858 114.7054  1.00272770  5335
